G90;
G21 ; Millimeter units
G90 ; Absolute coordinates
M3 S0 ; Pen UP initial
G4 P150
M3 S0
G1 F1200 X33.554286 Y68.000000;
M3 S90
G1 F800 X36.445714 Y68.000000;
G1 X39.337143 Y67.748571;
G1 X41.600000 Y67.371429;
G1 X43.737143 Y66.868571;
G1 X47.131429 Y65.737143;
G1 X49.394286 Y64.731429;
G1 X51.782857 Y63.474286;
G1 X54.297143 Y61.840000;
G1 X56.182857 Y60.331429;
G1 X57.188571 Y59.451429;
G1 X59.451429 Y57.188571;
G1 X60.331429 Y56.182857;
G1 X61.588571 Y54.548571;
G1 X62.720000 Y52.914286;
G1 X64.102857 Y50.651429;
G1 X65.485714 Y47.760000;
G1 X66.240000 Y45.748571;
G1 X66.994286 Y43.360000;
G1 X67.622857 Y40.217143;
G1 X67.874286 Y38.331429;
G1 X68.000000 Y36.445714;
G1 X68.000000 Y33.554286;
G1 X67.748571 Y30.662857;
G1 X67.371429 Y28.400000;
G1 X66.868571 Y26.262857;
G1 X65.862857 Y23.120000;
G1 X64.731429 Y20.605714;
G1 X63.474286 Y18.217143;
G1 X61.965714 Y15.954286;
G1 X60.205714 Y13.691429;
G1 X58.194286 Y11.554286;
G1 X56.434286 Y9.794286;
G1 X54.422857 Y8.285714;
G1 X53.165714 Y7.405714;
G1 X50.902857 Y6.022857;
G1 X47.760000 Y4.514286;
G1 X45.371429 Y3.634286;
G1 X42.731429 Y2.880000;
G1 X40.217143 Y2.377143;
G1 X38.331429 Y2.125714;
G1 X36.445714 Y2.000000;
G1 X33.554286 Y2.000000;
G1 X30.788571 Y2.251429;
G1 X28.400000 Y2.628571;
G1 X25.760000 Y3.257143;
G1 X23.120000 Y4.137143;
G1 X20.605714 Y5.268571;
G1 X18.217143 Y6.525714;
G1 X15.702857 Y8.160000;
G1 X13.817143 Y9.668571;
G1 X12.811429 Y10.548571;
G1 X10.674286 Y12.685714;
G1 X9.794286 Y13.691429;
G1 X8.034286 Y15.954286;
G1 X6.148571 Y18.845714;
G1 X4.765714 Y21.611429;
G1 X3.885714 Y23.748571;
G1 X3.005714 Y26.640000;
G1 X2.377143 Y29.782857;
G1 X2.125714 Y31.668571;
G1 X2.000000 Y33.554286;
G1 X2.000000 Y36.445714;
G1 X2.251429 Y39.337143;
G1 X2.628571 Y41.600000;
G1 X3.257143 Y44.240000;
G1 X4.137143 Y46.880000;
G1 X5.268571 Y49.394286;
G1 X6.525714 Y51.782857;
G1 X8.034286 Y54.045714;
G1 X9.794286 Y56.308571;
G1 X11.680000 Y58.320000;
G1 X13.565714 Y60.205714;
G1 X15.577143 Y61.714286;
G1 X16.834286 Y62.594286;
G1 X19.348571 Y64.102857;
G1 X22.240000 Y65.485714;
G1 X24.251429 Y66.240000;
G1 X26.640000 Y66.994286;
G1 X29.782857 Y67.622857;
G1 X31.668571 Y67.874286;
G1 X33.554286 Y68.000000;
G4 P150
M3 S0
G1 F1200 X33.554286 Y67.371429;
M3 S90
G1 F800 X30.662857 Y67.120000;
G1 X27.897143 Y66.617143;
G1 X25.508571 Y65.988571;
G1 X22.994286 Y65.108571;
G1 X20.480000 Y63.977143;
G1 X18.217143 Y62.720000;
G1 X15.954286 Y61.211429;
G1 X14.320000 Y59.954286;
G1 X12.182857 Y57.942857;
G1 X10.925714 Y56.685714;
G1 X10.045714 Y55.680000;
G1 X8.537143 Y53.794286;
G1 X6.902857 Y51.154286;
G1 X5.520000 Y48.514286;
G1 X4.388571 Y45.622857;
G1 X3.508571 Y42.731429;
G1 X3.005714 Y40.217143;
G1 X2.754286 Y38.331429;
G1 X2.628571 Y36.445714;
G1 X2.628571 Y33.554286;
G1 X2.880000 Y30.788571;
G1 X3.257143 Y28.400000;
G1 X3.885714 Y25.885714;
G1 X4.891429 Y22.994286;
G1 X6.022857 Y20.480000;
G1 X7.405714 Y17.965714;
G1 X8.662857 Y16.080000;
G1 X10.422857 Y13.817143;
G1 X13.314286 Y10.925714;
G1 X14.320000 Y10.045714;
G1 X16.457143 Y8.411429;
G1 X18.845714 Y6.902857;
G1 X21.485714 Y5.520000;
G1 X24.377143 Y4.388571;
G1 X27.268571 Y3.508571;
G1 X29.782857 Y3.005714;
G1 X31.668571 Y2.754286;
G1 X33.554286 Y2.628571;
G1 X36.445714 Y2.628571;
G1 X39.211429 Y2.880000;
G1 X41.600000 Y3.257143;
G1 X44.114286 Y3.885714;
G1 X47.005714 Y4.891429;
G1 X49.520000 Y6.022857;
G1 X51.782857 Y7.280000;
G1 X54.045714 Y8.788571;
G1 X56.182857 Y10.422857;
G1 X59.828571 Y14.068571;
G1 X60.960000 Y15.577143;
G1 X62.091429 Y17.211429;
G1 X63.097143 Y18.845714;
G1 X64.480000 Y21.485714;
G1 X65.611429 Y24.377143;
G1 X66.365714 Y26.765714;
G1 X66.994286 Y29.782857;
G1 X67.245714 Y31.668571;
G1 X67.371429 Y33.554286;
G1 X67.371429 Y36.445714;
G1 X67.120000 Y39.211429;
G1 X66.742857 Y41.600000;
G1 X65.988571 Y44.491429;
G1 X65.108571 Y47.005714;
G1 X63.977143 Y49.520000;
G1 X62.594286 Y52.034286;
G1 X61.337143 Y53.920000;
G1 X59.954286 Y55.680000;
G1 X57.942857 Y57.817143;
G1 X55.931429 Y59.828571;
G1 X53.542857 Y61.588571;
G1 X51.154286 Y63.097143;
G1 X48.514286 Y64.480000;
G1 X45.622857 Y65.611429;
G1 X43.234286 Y66.365714;
G1 X40.217143 Y66.994286;
G1 X38.331429 Y67.245714;
G1 X36.445714 Y67.371429;
G1 X33.554286 Y67.371429;
G4 P150
M3 S0
G1 F1200 X31.794286 Y65.234286;
M3 S90
G1 F800 X32.800000 Y65.234286;
G1 X32.548571 Y64.982857;
G1 X31.794286 Y64.731429;
G1 X28.651429 Y64.228571;
G1 X26.262857 Y63.600000;
G1 X24.377143 Y62.971429;
G1 X21.485714 Y61.714286;
G1 X19.851429 Y60.834286;
G1 X17.714286 Y59.451429;
G1 X15.954286 Y58.194286;
G1 X15.325714 Y58.068571;
G1 X15.954286 Y58.697143;
G1 X17.840000 Y60.080000;
G1 X19.600000 Y61.211429;
G1 X21.988571 Y62.468571;
G1 X24.628571 Y63.600000;
G1 X27.645714 Y64.480000;
G1 X30.788571 Y65.108571;
G1 X31.794286 Y65.234286;
G4 P150
M3 S0
G1 F1200 X36.948571 Y65.234286;
M3 S90
G1 F800 X38.205714 Y65.234286;
G1 X41.348571 Y64.731429;
G1 X43.737143 Y64.102857;
G1 X45.622857 Y63.474286;
G1 X48.514286 Y62.217143;
G1 X50.902857 Y60.960000;
G1 X52.662857 Y59.702857;
G1 X54.800000 Y58.068571;
G1 X54.548571 Y57.942857;
G1 X53.542857 Y58.445714;
G1 X52.285714 Y59.451429;
G1 X50.022857 Y60.834286;
G1 X47.508571 Y62.217143;
G1 X44.994286 Y63.222857;
G1 X42.354286 Y63.977143;
G1 X39.211429 Y64.605714;
G1 X37.200000 Y64.982857;
G1 X36.948571 Y65.234286;
G4 P150
M3 S0
G1 F1200 X57.817143 Y54.925714;
M3 S90
G1 F800 X58.445714 Y54.297143;
G1 X59.954286 Y52.411429;
G1 X61.211429 Y50.400000;
G1 X62.468571 Y48.011429;
G1 X63.600000 Y45.371429;
G1 X64.480000 Y42.354286;
G1 X65.108571 Y39.211429;
G1 X65.234286 Y38.205714;
G1 X65.234286 Y37.074286;
G1 X64.982857 Y37.325714;
G1 X64.731429 Y38.205714;
G1 X64.354286 Y40.720000;
G1 X63.725714 Y43.360000;
G1 X62.971429 Y45.622857;
G1 X61.714286 Y48.514286;
G1 X60.960000 Y49.897143;
G1 X59.200000 Y52.662857;
G1 X57.942857 Y54.297143;
G1 X57.817143 Y54.925714;
G4 P150
M3 S0
G1 F1200 X11.805714 Y54.674286;
M3 S90
G1 F800 X11.931429 Y54.297143;
G1 X11.051429 Y52.914286;
G1 X10.045714 Y51.531429;
G1 X8.537143 Y49.017143;
G1 X7.657143 Y47.131429;
G1 X6.777143 Y44.994286;
G1 X6.022857 Y42.354286;
G1 X5.394286 Y39.211429;
G1 X5.142857 Y37.702857;
G1 X4.891429 Y37.074286;
G1 X4.765714 Y37.074286;
G1 X4.765714 Y38.205714;
G1 X5.268571 Y41.348571;
G1 X6.022857 Y44.114286;
G1 X6.651429 Y46.000000;
G1 X7.657143 Y48.262857;
G1 X8.914286 Y50.651429;
G1 X10.171429 Y52.537143;
G1 X11.805714 Y54.674286;
G4 P150
M3 S0
G1 F1200 X33.554286 Y50.274286;
M3 S90
G1 F800 X36.445714 Y50.274286;
G1 X39.085714 Y49.771429;
G1 X41.474286 Y48.891429;
G1 X43.360000 Y47.885714;
G1 X43.737143 Y47.634286;
G1 X43.737143 Y47.382857;
G1 X44.365714 Y47.131429;
G1 X45.622857 Y46.000000;
G1 X46.251429 Y45.371429;
G1 X47.257143 Y44.240000;
G1 X48.262857 Y42.731429;
G1 X49.268571 Y40.594286;
G1 X49.897143 Y38.582857;
G1 X50.274286 Y36.445714;
G1 X50.274286 Y33.554286;
G1 X49.771429 Y30.914286;
G1 X48.765714 Y28.274286;
G1 X47.634286 Y26.262857;
G1 X47.382857 Y26.262857;
G1 X47.131429 Y25.634286;
G1 X46.000000 Y24.377143;
G1 X45.371429 Y23.748571;
G1 X44.365714 Y22.868571;
G1 X43.737143 Y22.617143;
G1 X43.737143 Y22.365714;
G1 X41.725714 Y21.234286;
G1 X39.840000 Y20.480000;
G1 X37.954286 Y19.977143;
G1 X36.445714 Y19.725714;
G1 X33.554286 Y19.725714;
G1 X30.914286 Y20.228571;
G1 X28.525714 Y21.108571;
G1 X27.142857 Y21.862857;
G1 X25.634286 Y22.868571;
G1 X24.125714 Y24.125714;
G1 X22.994286 Y25.508571;
G1 X22.617143 Y26.011429;
G1 X22.617143 Y26.262857;
G1 X22.365714 Y26.262857;
G1 X21.234286 Y28.274286;
G1 X20.228571 Y30.914286;
G1 X19.725714 Y33.554286;
G1 X19.725714 Y36.445714;
G1 X20.228571 Y39.085714;
G1 X21.108571 Y41.474286;
G1 X21.988571 Y43.108571;
G1 X22.994286 Y44.491429;
G1 X24.251429 Y46.000000;
G1 X25.634286 Y47.131429;
G1 X27.142857 Y48.137143;
G1 X29.154286 Y49.142857;
G1 X31.417143 Y49.897143;
G1 X33.554286 Y50.274286;
G4 P150
M3 S0
G1 F1200 X33.554286 Y49.897143;
M3 S90
G1 F800 X30.914286 Y49.394286;
G1 X28.274286 Y48.388571;
G1 X26.514286 Y47.257143;
G1 X25.885714 Y46.880000;
G1 X24.251429 Y45.371429;
G1 X23.622857 Y44.617143;
G1 X23.120000 Y44.114286;
G1 X21.737143 Y41.851429;
G1 X20.857143 Y39.840000;
G1 X20.354286 Y37.954286;
G1 X20.102857 Y36.320000;
G1 X20.102857 Y33.680000;
G1 X20.480000 Y31.417143;
G1 X21.234286 Y29.154286;
G1 X22.365714 Y27.017143;
G1 X23.497143 Y25.508571;
G1 X25.005714 Y23.874286;
G1 X26.137143 Y22.868571;
G1 X27.268571 Y22.240000;
G1 X28.525714 Y21.485714;
G1 X30.914286 Y20.605714;
G1 X33.554286 Y20.102857;
G1 X36.320000 Y20.102857;
G1 X38.582857 Y20.480000;
G1 X41.222857 Y21.360000;
G1 X43.360000 Y22.617143;
G1 X44.617143 Y23.622857;
G1 X46.000000 Y24.880000;
G1 X47.382857 Y26.640000;
G1 X48.514286 Y28.651429;
G1 X49.142857 Y30.160000;
G1 X49.645714 Y31.920000;
G1 X49.897143 Y33.680000;
G1 X49.897143 Y36.320000;
G1 X49.520000 Y38.582857;
G1 X48.891429 Y40.468571;
G1 X47.885714 Y42.480000;
G1 X46.628571 Y44.491429;
G1 X46.000000 Y45.120000;
G1 X45.120000 Y46.000000;
G1 X43.360000 Y47.382857;
G1 X41.222857 Y48.640000;
G1 X38.582857 Y49.520000;
G1 X36.320000 Y49.897143;
G1 X33.554286 Y49.897143;
G4 P150
M3 S0
G1 F1200 X31.165714 Y44.240000;
M3 S90
G1 F800 X32.548571 Y44.240000;
G1 X33.805714 Y43.737143;
G1 X34.811429 Y42.857143;
G1 X35.314286 Y43.108571;
G1 X36.068571 Y43.737143;
G1 X37.325714 Y44.240000;
G1 X38.708571 Y44.240000;
G1 X39.965714 Y43.737143;
G1 X40.971429 Y42.857143;
G1 X41.600000 Y41.725714;
G1 X41.725714 Y41.222857;
G1 X41.725714 Y39.840000;
G1 X41.348571 Y38.834286;
G1 X42.731429 Y38.457143;
G1 X43.737143 Y37.828571;
G1 X44.491429 Y36.948571;
G1 X44.994286 Y35.691429;
G1 X44.994286 Y34.308571;
G1 X44.491429 Y33.051429;
G1 X43.611429 Y32.045714;
G1 X42.480000 Y31.417143;
G1 X41.474286 Y31.291429;
G1 X41.851429 Y30.285714;
G1 X41.851429 Y28.902857;
G1 X41.348571 Y27.645714;
G1 X40.468571 Y26.640000;
G1 X39.337143 Y26.011429;
G1 X38.834286 Y25.885714;
G1 X37.451429 Y25.885714;
G1 X36.194286 Y26.388571;
G1 X35.188571 Y27.268571;
G1 X34.811429 Y27.268571;
G1 X33.805714 Y26.388571;
G1 X32.548571 Y25.885714;
G1 X31.165714 Y25.885714;
G1 X29.908571 Y26.388571;
G1 X28.902857 Y27.268571;
G1 X28.274286 Y28.400000;
G1 X28.148571 Y28.902857;
G1 X28.148571 Y30.285714;
G1 X28.525714 Y31.291429;
G1 X27.520000 Y31.417143;
G1 X26.388571 Y32.045714;
G1 X25.508571 Y33.051429;
G1 X25.005714 Y34.308571;
G1 X25.005714 Y35.691429;
G1 X25.508571 Y36.948571;
G1 X26.388571 Y37.954286;
G1 X27.520000 Y38.582857;
G1 X28.525714 Y38.834286;
G1 X28.148571 Y39.840000;
G1 X28.148571 Y41.222857;
G1 X28.651429 Y42.480000;
G1 X29.531429 Y43.485714;
G1 X30.662857 Y44.114286;
G1 X31.165714 Y44.240000;
G4 P150
M3 S0
G1 F1200 X4.765714 Y32.925714;
M3 S90
G1 F800 X5.017143 Y32.674286;
G1 X5.268571 Y31.794286;
G1 X5.645714 Y29.405714;
G1 X6.274286 Y26.640000;
G1 X7.028571 Y24.377143;
G1 X8.285714 Y21.485714;
G1 X9.291429 Y19.725714;
G1 X10.925714 Y17.211429;
G1 X11.931429 Y15.828571;
G1 X12.057143 Y15.200000;
G1 X11.428571 Y15.828571;
G1 X10.171429 Y17.462857;
G1 X8.914286 Y19.348571;
G1 X7.405714 Y22.240000;
G1 X6.400000 Y24.628571;
G1 X5.520000 Y27.520000;
G1 X4.891429 Y30.788571;
G1 X4.765714 Y31.794286;
G1 X4.765714 Y32.925714;
G4 P150
M3 S0
G1 F1200 X65.108571 Y32.925714;
M3 S90
G1 F800 X65.234286 Y32.925714;
G1 X65.234286 Y31.794286;
G1 X64.731429 Y28.651429;
G1 X64.102857 Y26.262857;
G1 X63.474286 Y24.377143;
G1 X62.342857 Y21.737143;
G1 X60.960000 Y19.097143;
G1 X59.702857 Y17.337143;
G1 X58.068571 Y15.200000;
G1 X57.691429 Y14.948571;
G1 X57.942857 Y15.702857;
G1 X59.074286 Y17.211429;
G1 X60.457143 Y19.348571;
G1 X61.462857 Y21.108571;
G1 X62.468571 Y23.120000;
G1 X63.222857 Y25.005714;
G1 X63.977143 Y27.645714;
G1 X64.605714 Y30.788571;
G1 X64.857143 Y32.297143;
G1 X65.108571 Y32.925714;
G4 P150
M3 S0
G1 F1200 X54.800000 Y12.308571;
M3 S90
G1 F800 X55.051429 Y12.182857;
G1 X54.045714 Y11.302857;
G1 X52.537143 Y10.171429;
G1 X50.651429 Y8.914286;
G1 X47.760000 Y7.405714;
G1 X45.371429 Y6.400000;
G1 X42.480000 Y5.520000;
G1 X40.091429 Y5.017143;
G1 X38.205714 Y4.765714;
G1 X37.074286 Y4.765714;
G1 X37.325714 Y5.017143;
G1 X38.205714 Y5.268571;
G1 X40.594286 Y5.645714;
G1 X43.360000 Y6.274286;
G1 X46.000000 Y7.154286;
G1 X48.514286 Y8.285714;
G1 X50.274286 Y9.291429;
G1 X52.788571 Y10.925714;
G1 X54.297143 Y12.057143;
G1 X54.800000 Y12.308571;
G4 P150
M3 S0
G1 F1200 X15.074286 Y12.182857;
M3 S90
G1 F800 X15.954286 Y11.931429;
G1 X17.462857 Y10.674286;
G1 X19.725714 Y9.291429;
G1 X20.982857 Y8.537143;
G1 X22.868571 Y7.657143;
G1 X25.005714 Y6.777143;
G1 X27.520000 Y6.022857;
G1 X30.788571 Y5.394286;
G1 X32.297143 Y5.142857;
G1 X32.925714 Y4.891429;
G1 X32.925714 Y4.765714;
G1 X31.794286 Y4.765714;
G1 X29.280000 Y5.142857;
G1 X26.262857 Y5.897143;
G1 X24.000000 Y6.651429;
G1 X21.737143 Y7.657143;
G1 X19.600000 Y8.788571;
G1 X17.462857 Y10.171429;
G1 X15.200000 Y11.931429;
G1 X15.074286 Y12.182857;
M3 S0 ; Pen UP final
G0 X0 Y0 F1200 ; Return home